[{"OBJECT_NAME":"FLOCK 4BE-34","OBJECT_ID":"2024-149AD","EPOCH":"2026-03-02T19:40:12.855936","MEAN_MOTION":15.37689637,"ECCENTRICITY":0.0002252,"INCLINATION":97.3838,"RA_OF_ASC_NODE":145.3781,"ARG_OF_PERICENTER":297.9431,"MEAN_ANOMALY":62.1586,"EPHEMERIS_TYPE":0,"CLASSIFICATION_TYPE":"U","NORAD_CAT_ID":60495,"ELEMENT_SET_NO":999,"REV_AT_EPOCH":8596,"BSTAR":0.00054854,"MEAN_MOTION_DOT":0.00020248,"MEAN_MOTION_DDOT":0},{"OBJECT_NAME":"FLOCK 4BE-32","OBJECT_ID":"2024-149AF","EPOCH":"2026-03-02T17:01:52.908960","MEAN_MOTION":15.38117642,"ECCENTRICITY":0.0002579,"INCLINATION":97.378,"RA_OF_ASC_NODE":144.7741,"ARG_OF_PERICENTER":295.9538,"MEAN_ANOMALY":64.1441,"EPHEMERIS_TYPE":0,"CLASSIFICATION_TYPE":"U","NORAD_CAT_ID":60497,"ELEMENT_SET_NO":999,"REV_AT_EPOCH":8594,"BSTAR":0.00061871,"MEAN_MOTION_DOT":0.00023177,"MEAN_MOTION_DDOT":0},{"OBJECT_NAME":"FLOCK 4BE-30","OBJECT_ID":"2024-149AH","EPOCH":"2026-03-02T18:50:29.222016","MEAN_MOTION":15.37954612,"ECCENTRICITY":0.0001954,"INCLINATION":97.3861,"RA_OF_ASC_NODE":145.4066,"ARG_OF_PERICENTER":296.027,"MEAN_ANOMALY":64.0774,"EPHEMERIS_TYPE":0,"CLASSIFICATION_TYPE":"U","NORAD_CAT_ID":60499,"ELEMENT_SET_NO":999,"REV_AT_EPOCH":8533,"BSTAR":0.00058045,"MEAN_MOTION_DOT":0.00021619,"MEAN_MOTION_DDOT":0},{"OBJECT_NAME":"FLOCK 4BE-11","OBJECT_ID":"2024-149AK","EPOCH":"2026-03-02T18:16:59.441376","MEAN_MOTION":15.38931022,"ECCENTRICITY":0.0002958,"INCLINATION":97.3765,"RA_OF_ASC_NODE":144.9507,"ARG_OF_PERICENTER":294.6132,"MEAN_ANOMALY":65.4805,"EPHEMERIS_TYPE":0,"CLASSIFICATION_TYPE":"U","NORAD_CAT_ID":60501,"ELEMENT_SET_NO":999,"REV_AT_EPOCH":8596,"BSTAR":0.00063032,"MEAN_MOTION_DOT":0.00024251,"MEAN_MOTION_DDOT":0},{"OBJECT_NAME":"FLOCK 4BE-24","OBJECT_ID":"2024-149AP","EPOCH":"2026-03-02T17:49:37.831008","MEAN_MOTION":15.38802622,"ECCENTRICITY":0.000289,"INCLINATION":97.3778,"RA_OF_ASC_NODE":145.1775,"ARG_OF_PERICENTER":306.4847,"MEAN_ANOMALY":53.6132,"EPHEMERIS_TYPE":0,"CLASSIFICATION_TYPE":"U","NORAD_CAT_ID":60505,"ELEMENT_SET_NO":999,"REV_AT_EPOCH":8597,"BSTAR":0.00058231,"MEAN_MOTION_DOT":0.00022298,"MEAN_MOTION_DDOT":0},{"OBJECT_NAME":"TANAGER-1","OBJECT_ID":"2024-149AR","EPOCH":"2026-03-02T15:02:51.454752","MEAN_MOTION":15.43553673,"ECCENTRICITY":0.0007258,"INCLINATION":97.3791,"RA_OF_ASC_NODE":154.9076,"ARG_OF_PERICENTER":226.025,"MEAN_ANOMALY":134.04,"EPHEMERIS_TYPE":0,"CLASSIFICATION_TYPE":"U","NORAD_CAT_ID":60507,"ELEMENT_SET_NO":999,"REV_AT_EPOCH":8659,"BSTAR":0.00011578,"MEAN_MOTION_DOT":5.112e-5,"MEAN_MOTION_DDOT":0},{"OBJECT_NAME":"FLOCK 4BE-29","OBJECT_ID":"2024-149AT","EPOCH":"2026-03-02T18:36:17.246304","MEAN_MOTION":15.40058446,"ECCENTRICITY":0.0002009,"INCLINATION":97.386,"RA_OF_ASC_NODE":146.3361,"ARG_OF_PERICENTER":327.5677,"MEAN_ANOMALY":32.5446,"EPHEMERIS_TYPE":0,"CLASSIFICATION_TYPE":"U","NORAD_CAT_ID":60509,"ELEMENT_SET_NO":999,"REV_AT_EPOCH":8601,"BSTAR":0.00063579,"MEAN_MOTION_DOT":0.00025384,"MEAN_MOTION_DDOT":0},{"OBJECT_NAME":"FLOCK 4BE-2","OBJECT_ID":"2024-149AV","EPOCH":"2026-03-02T18:06:31.507776","MEAN_MOTION":15.42457083,"ECCENTRICITY":0.0002621,"INCLINATION":97.387,"RA_OF_ASC_NODE":146.8671,"ARG_OF_PERICENTER":304.1834,"MEAN_ANOMALY":55.9165,"EPHEMERIS_TYPE":0,"CLASSIFICATION_TYPE":"U","NORAD_CAT_ID":60511,"ELEMENT_SET_NO":999,"REV_AT_EPOCH":8604,"BSTAR":0.0011224,"MEAN_MOTION_DOT":0.00048735,"MEAN_MOTION_DDOT":0},{"OBJECT_NAME":"FLOCK 4BE-13","OBJECT_ID":"2024-149AW","EPOCH":"2026-03-02T17:56:41.247168","MEAN_MOTION":15.38495986,"ECCENTRICITY":0.0003452,"INCLINATION":97.3777,"RA_OF_ASC_NODE":145.2868,"ARG_OF_PERICENTER":297.026,"MEAN_ANOMALY":63.0633,"EPHEMERIS_TYPE":0,"CLASSIFICATION_TYPE":"U","NORAD_CAT_ID":60512,"ELEMENT_SET_NO":999,"REV_AT_EPOCH":8598,"BSTAR":0.00055813,"MEAN_MOTION_DOT":0.00021155,"MEAN_MOTION_DDOT":0},{"OBJECT_NAME":"FLOCK 4BE-27","OBJECT_ID":"2024-149AX","EPOCH":"2026-03-02T18:24:12.911904","MEAN_MOTION":15.32401548,"ECCENTRICITY":0.0003059,"INCLINATION":97.3886,"RA_OF_ASC_NODE":143.7047,"ARG_OF_PERICENTER":340.3547,"MEAN_ANOMALY":19.7576,"EPHEMERIS_TYPE":0,"CLASSIFICATION_TYPE":"U","NORAD_CAT_ID":60513,"ELEMENT_SET_NO":999,"REV_AT_EPOCH":8583,"BSTAR":0.00040468,"MEAN_MOTION_DOT":0.00012591,"MEAN_MOTION_DDOT":0},{"OBJECT_NAME":"FLOCK 4BE-9","OBJECT_ID":"2024-149AY","EPOCH":"2026-03-02T19:01:31.507392","MEAN_MOTION":15.37292516,"ECCENTRICITY":0.0001675,"INCLINATION":97.3849,"RA_OF_ASC_NODE":145.2868,"ARG_OF_PERICENTER":337.3408,"MEAN_ANOMALY":22.7762,"EPHEMERIS_TYPE":0,"CLASSIFICATION_TYPE":"U","NORAD_CAT_ID":60514,"ELEMENT_SET_NO":999,"REV_AT_EPOCH":8595,"BSTAR":0.00051862,"MEAN_MOTION_DOT":0.00018891,"MEAN_MOTION_DDOT":0},{"OBJECT_NAME":"FLOCK 4BE-6","OBJECT_ID":"2024-149BA","EPOCH":"2026-03-02T16:21:50.473152","MEAN_MOTION":15.36340309,"ECCENTRICITY":0.0002403,"INCLINATION":97.3851,"RA_OF_ASC_NODE":144.7105,"ARG_OF_PERICENTER":326.3468,"MEAN_ANOMALY":33.7623,"EPHEMERIS_TYPE":0,"CLASSIFICATION_TYPE":"U","NORAD_CAT_ID":60516,"ELEMENT_SET_NO":999,"REV_AT_EPOCH":8590,"BSTAR":0.00051701,"MEAN_MOTION_DOT":0.00018262,"MEAN_MOTION_DDOT":0},{"OBJECT_NAME":"FLOCK 4BE-14","OBJECT_ID":"2024-149BB","EPOCH":"2026-03-02T18:00:27.003456","MEAN_MOTION":15.37375766,"ECCENTRICITY":0.0003261,"INCLINATION":97.376,"RA_OF_ASC_NODE":144.8488,"ARG_OF_PERICENTER":322.5031,"MEAN_ANOMALY":37.5986,"EPHEMERIS_TYPE":0,"CLASSIFICATION_TYPE":"U","NORAD_CAT_ID":60517,"ELEMENT_SET_NO":999,"REV_AT_EPOCH":8595,"BSTAR":0.00052742,"MEAN_MOTION_DOT":0.00019268,"MEAN_MOTION_DDOT":0},{"OBJECT_NAME":"FLOCK 4BE-1","OBJECT_ID":"2024-149BC","EPOCH":"2026-03-02T19:15:49.703040","MEAN_MOTION":15.38629935,"ECCENTRICITY":0.0003149,"INCLINATION":97.3837,"RA_OF_ASC_NODE":145.8254,"ARG_OF_PERICENTER":318.2678,"MEAN_ANOMALY":41.8326,"EPHEMERIS_TYPE":0,"CLASSIFICATION_TYPE":"U","NORAD_CAT_ID":60518,"ELEMENT_SET_NO":999,"REV_AT_EPOCH":8599,"BSTAR":0.00057036,"MEAN_MOTION_DOT":0.00021715,"MEAN_MOTION_DDOT":0},{"OBJECT_NAME":"FLOCK 4BE-28","OBJECT_ID":"2024-149BD","EPOCH":"2026-03-02T18:33:07.085088","MEAN_MOTION":15.40616794,"ECCENTRICITY":0.0003532,"INCLINATION":97.3802,"RA_OF_ASC_NODE":146.2118,"ARG_OF_PERICENTER":316.5043,"MEAN_ANOMALY":43.5924,"EPHEMERIS_TYPE":0,"CLASSIFICATION_TYPE":"U","NORAD_CAT_ID":60519,"ELEMENT_SET_NO":999,"REV_AT_EPOCH":8603,"BSTAR":0.00063061,"MEAN_MOTION_DOT":0.00025648,"MEAN_MOTION_DDOT":0},{"OBJECT_NAME":"FLOCK 4BE-35","OBJECT_ID":"2024-149CU","EPOCH":"2026-03-02T20:00:51.170112","MEAN_MOTION":15.42162443,"ECCENTRICITY":0.000439,"INCLINATION":97.3807,"RA_OF_ASC_NODE":144.9905,"ARG_OF_PERICENTER":280.8638,"MEAN_ANOMALY":79.2115,"EPHEMERIS_TYPE":0,"CLASSIFICATION_TYPE":"U","NORAD_CAT_ID":60558,"ELEMENT_SET_NO":999,"REV_AT_EPOCH":8594,"BSTAR":0.0022332,"MEAN_MOTION_DOT":0.0009672,"MEAN_MOTION_DDOT":0},{"OBJECT_NAME":"FLOCK 4BE-5","OBJECT_ID":"2024-149CV","EPOCH":"2026-03-02T18:14:43.095264","MEAN_MOTION":15.36666858,"ECCENTRICITY":0.0002444,"INCLINATION":97.3899,"RA_OF_ASC_NODE":144.9897,"ARG_OF_PERICENTER":326.0453,"MEAN_ANOMALY":34.0634,"EPHEMERIS_TYPE":0,"CLASSIFICATION_TYPE":"U","NORAD_CAT_ID":60559,"ELEMENT_SET_NO":999,"REV_AT_EPOCH":8591,"BSTAR":0.00066517,"MEAN_MOTION_DOT":0.00023784,"MEAN_MOTION_DDOT":0}]
