FLOCK 4BE-34            
1 60495U 24149AD  26061.81959324  .00020248  00000+0  54854-3 0  9994
2 60495  97.3838 145.3781 0002252 297.9431  62.1586 15.37689637 85960
FLOCK 4BE-32            
1 60497U 24149AF  26061.70964015  .00023177  00000+0  61871-3 0  9998
2 60497  97.3780 144.7741 0002579 295.9538  64.1441 15.38117642 85948
FLOCK 4BE-30            
1 60499U 24149AH  26061.78506044  .00021619  00000+0  58045-3 0  9990
2 60499  97.3861 145.4066 0001954 296.0270  64.0774 15.37954612 85335
FLOCK 4BE-11            
1 60501U 24149AK  26061.76179909  .00024251  00000+0  63032-3 0  9995
2 60501  97.3765 144.9507 0002958 294.6132  65.4805 15.38931022 85962
FLOCK 4BE-24            
1 60505U 24149AP  26061.74279897  .00022298  00000+0  58231-3 0  9998
2 60505  97.3778 145.1775 0002890 306.4847  53.6132 15.38802622 85976
TANAGER-1               
1 60507U 24149AR  26061.62698443  .00005112  00000+0  11578-3 0  9998
2 60507  97.3791 154.9076 0007258 226.0250 134.0400 15.43553673 86599
FLOCK 4BE-29            
1 60509U 24149AT  26061.77519961  .00025384  00000+0  63579-3 0  9994
2 60509  97.3860 146.3361 0002009 327.5677  32.5446 15.40058446 86013
FLOCK 4BE-2             
1 60511U 24149AV  26061.75453134  .00048735  00000+0  11224-2 0  9998
2 60511  97.3870 146.8671 0002621 304.1834  55.9165 15.42457083 86044
FLOCK 4BE-13            
1 60512U 24149AW  26061.74769962  .00021155  00000+0  55813-3 0  9997
2 60512  97.3777 145.2868 0003452 297.0260  63.0633 15.38495986 85989
FLOCK 4BE-27            
1 60513U 24149AX  26061.76681611  .00012591  00000+0  40468-3 0  9998
2 60513  97.3886 143.7047 0003059 340.3547  19.7576 15.32401548 85839
FLOCK 4BE-9             
1 60514U 24149AY  26061.79272578  .00018891  00000+0  51862-3 0  9999
2 60514  97.3849 145.2868 0001675 337.3408  22.7762 15.37292516 85953
FLOCK 4BE-6             
1 60516U 24149BA  26061.68183418  .00018262  00000+0  51701-3 0  9997
2 60516  97.3851 144.7105 0002403 326.3468  33.7623 15.36340309 85906
FLOCK 4BE-14            
1 60517U 24149BB  26061.75031254  .00019268  00000+0  52742-3 0  9999
2 60517  97.3760 144.8488 0003261 322.5031  37.5986 15.37375766 85953
FLOCK 4BE-1             
1 60518U 24149BC  26061.80265860  .00021715  00000+0  57036-3 0  9999
2 60518  97.3837 145.8254 0003149 318.2678  41.8326 15.38629935 85996
FLOCK 4BE-28            
1 60519U 24149BD  26061.77299867  .00025648  00000+0  63061-3 0  9994
2 60519  97.3802 146.2118 0003532 316.5043  43.5924 15.40616794 86037
FLOCK 4BE-35            
1 60558U 24149CU  26061.83392558  .00096720  00000+0  22332-2 0  9999
2 60558  97.3807 144.9905 0004390 280.8638  79.2115 15.42162443 85946
FLOCK 4BE-5             
1 60559U 24149CV  26061.76022101  .00023784  00000+0  66517-3 0  9990
2 60559  97.3899 144.9897 0002444 326.0453  34.0634 15.36666858 85918
